[{"OBJECT_NAME":"STARLINK-36411","OBJECT_ID":"2026-018V","EPOCH":"2026-03-09T22:00:01.999584","MEAN_MOTION":15.67971657,"ECCENTRICITY":0.00018908,"INCLINATION":97.2839,"RA_OF_ASC_NODE":134.8178,"ARG_OF_PERICENTER":74.0997,"MEAN_ANOMALY":109.8922,"EPHEMERIS_TYPE":0,"CLASSIFICATION_TYPE":"U","NORAD_CAT_ID":67608,"ELEMENT_SET_NO":999,"REV_AT_EPOCH":604,"BSTAR":-0.020003062,"MEAN_MOTION_DOT":-0.01951575,"MEAN_MOTION_DDOT":0},{"OBJECT_NAME":"ARIANE 5 R\/B","OBJECT_ID":"2015-022C","EPOCH":"2026-03-09T14:02:15.385056","MEAN_MOTION":3.1755247,"ECCENTRICITY":0.66275382,"INCLINATION":5.4691,"RA_OF_ASC_NODE":160.8312,"ARG_OF_PERICENTER":134.0508,"MEAN_ANOMALY":304.3008,"EPHEMERIS_TYPE":0,"CLASSIFICATION_TYPE":"U","NORAD_CAT_ID":40615,"ELEMENT_SET_NO":999,"REV_AT_EPOCH":10420,"BSTAR":0.00092088812,"MEAN_MOTION_DOT":0.00012031,"MEAN_MOTION_DDOT":0}]
